start=new Date('2022-11-10T00:00:00.000Z').valueOf();
sats=[{"GP_ID":"217276608","CENTER_NAME":"EARTH","RA_OF_ASC_NODE":"279.5858","ELEMENT_SET_NO":"999","CLASSIFICATION_TYPE":"U","ARG_OF_PERICENTER":"69.0322","MEAN_MOTION_DDOT":"0.0000000000000","OBJECT_NAME":"STARLINK-5148","FILE":"3650001","PERIAPSIS":"416.124","REV_AT_EPOCH":"130","APOAPSIS":"418.132","TIME_SYSTEM":"UTC","MEAN_ANOMALY":"308.3735","NORAD_CAT_ID":"53978","EPHEMERIS_TYPE":"0","MEAN_ELEMENT_THEORY":"SGP4","TLE_LINE2":"2 53978  53.2165 279.5858 0001478  69.0322 308.3735 15.49863192  1303","DECAY_DATE":null,"TLE_LINE1":"1 53978U 22125Q   22313.91668981  .00038187  00000-0  67800-3 0  9994","MEAN_MOTION_DOT":"0.00038187","INCLINATION":"53.2165","REF_FRAME":"TEME","OBJECT_ID":"2022-125Q","PERIOD":"92.911","SITE":"AFWTR","ECCENTRICITY":"0.00014780","MEAN_MOTION":"15.49863192","LAUNCH_DATE":"2022-10-05","BSTAR":"0.00067800000000","EPOCH":"2022-11-09T22:00:01.999584","SEMIMAJOR_AXIS":"6795.263","RCS_SIZE":"LARGE","COUNTRY_CODE":"US","OBJECT_TYPE":"PAYLOAD"},{"RA_OF_ASC_NODE":"279.5927","CENTER_NAME":"EARTH","GP_ID":"217277626","CLASSIFICATION_TYPE":"U","ELEMENT_SET_NO":"999","MEAN_MOTION_DDOT":"0.0000000000000","ARG_OF_PERICENTER":"92.7574","APOAPSIS":"417.771","REV_AT_EPOCH":"130","OBJECT_NAME":"STARLINK-5123","FILE":"3650001","PERIAPSIS":"416.241","MEAN_ELEMENT_THEORY":"SGP4","MEAN_ANOMALY":"281.4360","NORAD_CAT_ID":"53979","EPHEMERIS_TYPE":"0","TIME_SYSTEM":"UTC","ECCENTRICITY":"0.00011260","PERIOD":"92.909","SITE":"AFWTR","OBJECT_ID":"2022-125R","TLE_LINE2":"2 53979  53.2169 279.5927 0001126  92.7574 281.4360 15.49904792  1304","MEAN_MOTION_DOT":"0.00006715","TLE_LINE1":"1 53979U 22125R   22313.91668981  .00006715  00000-0  12608-3 0  9993","DECAY_DATE":null,"REF_FRAME":"TEME","INCLINATION":"53.2169","BSTAR":"0.00012608000000","LAUNCH_DATE":"2022-10-05","MEAN_MOTION":"15.49904792","OBJECT_TYPE":"PAYLOAD","COUNTRY_CODE":"US","SEMIMAJOR_AXIS":"6795.141","RCS_SIZE":"LARGE","EPOCH":"2022-11-09T22:00:01.999584"},{"GP_ID":"217276777","CENTER_NAME":"EARTH","RA_OF_ASC_NODE":"279.5826","ELEMENT_SET_NO":"999","CLASSIFICATION_TYPE":"U","ARG_OF_PERICENTER":"48.7640","MEAN_MOTION_DDOT":"0.0000000000000","OBJECT_NAME":"STARLINK-5133","FILE":"3650001","PERIAPSIS":"416.373","REV_AT_EPOCH":"130","APOAPSIS":"417.613","TIME_SYSTEM":"UTC","EPHEMERIS_TYPE":"0","NORAD_CAT_ID":"53980","MEAN_ANOMALY":"330.4829","MEAN_ELEMENT_THEORY":"SGP4","TLE_LINE1":"1 53980U 22125S   22313.91668981  .00038257  00000-0  67813-3 0  9999","MEAN_MOTION_DOT":"0.00038257","DECAY_DATE":null,"REF_FRAME":"TEME","INCLINATION":"53.2166","TLE_LINE2":"2 53980  53.2166 279.5826 0000912  48.7640 330.4829 15.49909341  1308","OBJECT_ID":"2022-125S","SITE":"AFWTR","PERIOD":"92.909","ECCENTRICITY":"0.00009120","MEAN_MOTION":"15.49909341","LAUNCH_DATE":"2022-10-05","BSTAR":"0.00067813000000","EPOCH":"2022-11-09T22:00:01.999584","RCS_SIZE":"LARGE","SEMIMAJOR_AXIS":"6795.128","COUNTRY_CODE":"US","OBJECT_TYPE":"PAYLOAD"},{"TIME_SYSTEM":"UTC","NORAD_CAT_ID":"53981","MEAN_ANOMALY":"145.8470","EPHEMERIS_TYPE":"0","MEAN_ELEMENT_THEORY":"SGP4","TLE_LINE2":"2 53981  53.2201 278.5762 0002221  20.6620 145.8470 15.73059037  1304","DECAY_DATE":null,"TLE_LINE1":"1 53981U 22125T   22313.91668981  .00085168  00000-0  60873-3 0  9992","MEAN_MOTION_DOT":"0.00085168","INCLINATION":"53.2201","REF_FRAME":"TEME","OBJECT_ID":"2022-125T","PERIOD":"91.541","SITE":"AFWTR","ECCENTRICITY":"0.00022210","LAUNCH_DATE":"2022-10-05","BSTAR":"0.00060873000000","MEAN_MOTION":"15.73059037","EPOCH":"2022-11-09T22:00:01.999584","SEMIMAJOR_AXIS":"6728.297","RCS_SIZE":"LARGE","COUNTRY_CODE":"US","OBJECT_TYPE":"PAYLOAD","GP_ID":"217277535","RA_OF_ASC_NODE":"278.5762","CENTER_NAME":"EARTH","ELEMENT_SET_NO":"999","CLASSIFICATION_TYPE":"U","ARG_OF_PERICENTER":"20.6620","MEAN_MOTION_DDOT":"0.0000000000000","FILE":"3650001","PERIAPSIS":"348.668","OBJECT_NAME":"STARLINK-5149","REV_AT_EPOCH":"130","APOAPSIS":"351.656"},{"RA_OF_ASC_NODE":"278.6247","CENTER_NAME":"EARTH","GP_ID":"217277027","CLASSIFICATION_TYPE":"U","ELEMENT_SET_NO":"999","MEAN_MOTION_DDOT":"0.0000000000000","ARG_OF_PERICENTER":"269.6433","APOAPSIS":"364.496","REV_AT_EPOCH":"130","FILE":"3650001","OBJECT_NAME":"STARLINK-5120","PERIAPSIS":"356.515","MEAN_ELEMENT_THEORY":"SGP4","NORAD_CAT_ID":"53982","MEAN_ANOMALY":"221.7518","EPHEMERIS_TYPE":"0","TIME_SYSTEM":"UTC","ECCENTRICITY":"0.00059220","SITE":"AFWTR","PERIOD":"91.753","OBJECT_ID":"2022-125U","TLE_LINE2":"2 53982  53.2173 278.6247 0005922 269.6433 221.7518 15.69438500  1308","DECAY_DATE":null,"TLE_LINE1":"1 53982U 22125U   22313.91668981 -.01053395  00000-0 -97615-2 0  9996","MEAN_MOTION_DOT":"-0.01053395","REF_FRAME":"TEME","INCLINATION":"53.2173","MEAN_MOTION":"15.69438500","LAUNCH_DATE":"2022-10-05","BSTAR":"-0.00976150000000","OBJECT_TYPE":"PAYLOAD","COUNTRY_CODE":"US","SEMIMAJOR_AXIS":"6738.641","RCS_SIZE":"LARGE","EPOCH":"2022-11-09T22:00:01.999584"},{"MEAN_MOTION_DDOT":"0.0000000000000","ARG_OF_PERICENTER":"9.7903","APOAPSIS":"351.778","REV_AT_EPOCH":"589","FILE":"3649549","OBJECT_NAME":"STARLINK-5103","PERIAPSIS":"347.607","RA_OF_ASC_NODE":"278.5889","CENTER_NAME":"EARTH","GP_ID":"217241740","CLASSIFICATION_TYPE":"U","ELEMENT_SET_NO":"999","MEAN_MOTION":"15.73223761","LAUNCH_DATE":"2022-10-05","BSTAR":"-0.00023744000000","OBJECT_TYPE":"PAYLOAD","COUNTRY_CODE":"US","SEMIMAJOR_AXIS":"6727.827","RCS_SIZE":"LARGE","EPOCH":"2022-11-09T22:00:01.999584","MEAN_ELEMENT_THEORY":"SGP4","NORAD_CAT_ID":"53983","MEAN_ANOMALY":"145.6081","EPHEMERIS_TYPE":"0","TIME_SYSTEM":"UTC","ECCENTRICITY":"0.00031000","PERIOD":"91.532","SITE":"AFWTR","OBJECT_ID":"2022-125V","TLE_LINE2":"2 53983  53.2165 278.5889 0003100   9.7903 145.6081 15.73223761  5895","TLE_LINE1":"1 53983U 22125V   22313.91668981 -.00033855  00000-0 -23744-3 0  9998","MEAN_MOTION_DOT":"-0.00033855","DECAY_DATE":null,"REF_FRAME":"TEME","INCLINATION":"53.2165"},{"ELEMENT_SET_NO":"999","CLASSIFICATION_TYPE":"U","GP_ID":"217241508","RA_OF_ASC_NODE":"278.6322","CENTER_NAME":"EARTH","OBJECT_NAME":"STARLINK-5142","FILE":"3649549","PERIAPSIS":"359.326","APOAPSIS":"361.566","REV_AT_EPOCH":"589","MEAN_MOTION_DDOT":"0.0000000000000","ARG_OF_PERICENTER":"38.0134","OBJECT_ID":"2022-125W","TLE_LINE2":"2 53984  53.2173 278.6322 0001662  38.0134  89.0355 15.69459442  5897","TLE_LINE1":"1 53984U 22125W   22313.91668981 -.01112028  00000-0 -10384-1 0  9994","DECAY_DATE":null,"MEAN_MOTION_DOT":"-0.01112028","REF_FRAME":"TEME","INCLINATION":"53.2173","ECCENTRICITY":"0.00016620","SITE":"AFWTR","PERIOD":"91.751","TIME_SYSTEM":"UTC","MEAN_ELEMENT_THEORY":"SGP4","NORAD_CAT_ID":"53984","MEAN_ANOMALY":"89.0355","EPHEMERIS_TYPE":"0","SEMIMAJOR_AXIS":"6738.581","RCS_SIZE":"LARGE","EPOCH":"2022-11-09T22:00:01.999584","OBJECT_TYPE":"PAYLOAD","COUNTRY_CODE":"US","BSTAR":"-0.01038400000000","LAUNCH_DATE":"2022-10-05","MEAN_MOTION":"15.69459442"},{"APOAPSIS":"364.209","REV_AT_EPOCH":"589","FILE":"3649549","OBJECT_NAME":"STARLINK-5147","PERIAPSIS":"356.726","MEAN_MOTION_DDOT":"0.0000000000000","ARG_OF_PERICENTER":"269.8421","CLASSIFICATION_TYPE":"U","ELEMENT_SET_NO":"999","CENTER_NAME":"EARTH","RA_OF_ASC_NODE":"278.6364","GP_ID":"217241506","OBJECT_TYPE":"PAYLOAD","COUNTRY_CODE":"US","SEMIMAJOR_AXIS":"6738.602","RCS_SIZE":"LARGE","EPOCH":"2022-11-09T22:00:01.999584","BSTAR":"-0.01087000000000","LAUNCH_DATE":"2022-10-05","MEAN_MOTION":"15.69451938","ECCENTRICITY":"0.00055520","SITE":"AFWTR","PERIOD":"91.752","OBJECT_ID":"2022-125X","TLE_LINE2":"2 53985  53.2173 278.6364 0005552 269.8421 215.7797 15.69451938  5899","MEAN_MOTION_DOT":"-0.01179623","TLE_LINE1":"1 53985U 22125X   22313.91668981 -.01179623  00000-0 -10870-1 0  9999","DECAY_DATE":null,"REF_FRAME":"TEME","INCLINATION":"53.2173","MEAN_ELEMENT_THEORY":"SGP4","NORAD_CAT_ID":"53985","MEAN_ANOMALY":"215.7797","EPHEMERIS_TYPE":"0","TIME_SYSTEM":"UTC"},{"ECCENTRICITY":"0.00019020","SITE":"AFWTR","PERIOD":"91.538","OBJECT_ID":"2022-125Y","TLE_LINE1":"1 53986U 22125Y   22313.91668981  .00092714  00000-0  66024-3 0  9996","MEAN_MOTION_DOT":"0.00092714","DECAY_DATE":null,"REF_FRAME":"TEME","INCLINATION":"53.2159","TLE_LINE2":"2 53986  53.2159 278.3350 0001902  40.3515 243.5592 15.73110451  5896","MEAN_ELEMENT_THEORY":"SGP4","EPHEMERIS_TYPE":"0","NORAD_CAT_ID":"53986","MEAN_ANOMALY":"243.5592","TIME_SYSTEM":"UTC","OBJECT_TYPE":"PAYLOAD","COUNTRY_CODE":"US","RCS_SIZE":"LARGE","SEMIMAJOR_AXIS":"6728.150","EPOCH":"2022-11-09T22:00:01.999584","LAUNCH_DATE":"2022-10-05","BSTAR":"0.00066024000000","MEAN_MOTION":"15.73110451","CLASSIFICATION_TYPE":"U","ELEMENT_SET_NO":"999","RA_OF_ASC_NODE":"278.3350","CENTER_NAME":"EARTH","GP_ID":"217241745","APOAPSIS":"351.295","REV_AT_EPOCH":"589","PERIAPSIS":"348.736","FILE":"3649549","OBJECT_NAME":"STARLINK-5119","MEAN_MOTION_DDOT":"0.0000000000000","ARG_OF_PERICENTER":"40.3515"},{"SITE":"AFWTR","PERIOD":"91.750","ECCENTRICITY":"0.00014390","TLE_LINE2":"2 53987  53.2173 278.6340 0001439 342.3463 143.9773 15.69481147  5899","TLE_LINE1":"1 53987U 22125Z   22313.91668981 -.01188734  00000-0 -10972-1 0  9997","DECAY_DATE":null,"INCLINATION":"53.2173","MEAN_MOTION_DOT":"-0.01188734","REF_FRAME":"TEME","OBJECT_ID":"2022-125Z","NORAD_CAT_ID":"53987","MEAN_ANOMALY":"143.9773","EPHEMERIS_TYPE":"0","MEAN_ELEMENT_THEORY":"SGP4","TIME_SYSTEM":"UTC","COUNTRY_CODE":"US","OBJECT_TYPE":"PAYLOAD","EPOCH":"2022-11-09T22:00:01.999584","SEMIMAJOR_AXIS":"6738.519","RCS_SIZE":"LARGE","LAUNCH_DATE":"2022-10-05","BSTAR":"-0.01097200000000","MEAN_MOTION":"15.69481147","CLASSIFICATION_TYPE":"U","ELEMENT_SET_NO":"999","RA_OF_ASC_NODE":"278.6340","CENTER_NAME":"EARTH","GP_ID":"217241763","REV_AT_EPOCH":"589","APOAPSIS":"361.353","PERIAPSIS":"359.414","FILE":"3649550","OBJECT_NAME":"STARLINK-5112","ARG_OF_PERICENTER":"342.3463","MEAN_MOTION_DDOT":"0.0000000000000"}];
